INTELSAT NEW DAWN       
1 37392U 11016A   20353.75486836  .00000155  00000-0  00000-0 0  9994
2 37392   0.0311 250.7396 0001358 322.1027 179.5106  1.00271757 33181
YAHSAT 1A               
1 37393U 11016B   20354.47659295  .00000102  00000-0  00000+0 0  9997
2 37393   0.0239 349.5626 0003166 258.5292  64.5002  1.00267482 35448
SBIRS GEO-1 (USA 230)   
1 37481U 11019A   20353.76149830 -.00000009  00000-0  00000-0 0  9996
2 37481   1.9010 352.1038 0002073 270.7963 165.2721  1.00271771 35282
TELSTAR 14R             
1 37602U 11021A   20354.43170715 -.00000280  00000-0  00000+0 0  9995
2 37602   0.0226 332.7447 0001581   2.4797 205.6958  1.00272401 35677
GSAT-8                  
1 37605U 11022A   20353.75931740  .00000084  00000-0  00000-0 0  9998
2 37605   0.0177 314.9167 0008373 309.8110 151.5466  1.00270925 33091
ST-2                    
1 37606U 11022B   20353.83660444 -.00000213  00000-0  00000-0 0  9993
2 37606   0.0255 337.4014 0001378 279.4546 220.2150  1.00272238 35166
CHINASAT 10 (ZX 10)     
1 37677U 11026A   20354.05742352 -.00000352  00000-0  00000+0 0  9992
2 37677   0.0426 249.2300 0004250 303.0340  26.9992  1.00267983 34840
TIANLIAN 1-02           
1 37737U 11032A   20353.78234774 -.00000018  00000-0  00000-0 0  9999
2 37737   2.7385  75.2011 0015094 117.4544 347.7738  1.00273554 24108
GSAT-12                 
1 37746U 11034A   20354.48261223 -.00000165  00000-0  00000+0 0  9990
2 37746   0.0358  97.0670 0006612 350.8316 257.3814  1.00272828 34844
SES-3                   
1 37748U 11035A   20353.65594262 -.00000103  00000-0  00000-0 0  9996
2 37748   0.0179  20.3170 0002455 250.9725 309.5692  1.00271957 34493
KAZSAT-2                
1 37749U 11035B   20354.48339736 -.00000197  00000-0  00000+0 0  9994
2 37749   0.0457 188.8582 0001082 161.9830 358.1946  1.00269411 34464
BEIDOU 9                
1 37763U 11038A   20354.24331625 -.00000012  00000-0  00000+0 0  9992
2 37763  54.4487 183.6734 0072371 223.0382 222.4850  1.00256086 34538
ASTRA 1N                
1 37775U 11041A   20354.32637237  .00000119  00000-0  00000+0 0  9993
2 37775   0.0445  31.6083 0001887 310.5735 242.8913  1.00269808 34283
BSAT-3C (JCSAT-110R)    
1 37776U 11041B   20354.05733628 -.00000351  00000-0  00000+0 0  9994
2 37776   0.0112  48.3952 0000412 298.6567 231.6446  1.00268388 34400
PAKSAT-1R               
1 37779U 11042A   20354.25832823  .00000154  00000-0  00000+0 0  9997
2 37779   0.0412 201.3037 0003311 128.0422 249.9676  1.00271186 34168
CHINASAT 1A (ZX 1A)     
1 37804U 11047A   20353.92112419 -.00000339  00000-0  00000-0 0  9993
2 37804   0.0193 251.7461 0002751  54.0965 243.5883  1.00269946 33957
COSMOS 2473             
1 37806U 11048A   20354.19873935 -.00000133  00000-0  00000+0 0  9994
2 37806   0.4943  97.7244 0002050 121.7078 283.7948  1.00261473 33957
SES-2                   
1 37809U 11049A   20353.58736190 -.00000197  00000-0  00000-0 0  9992
2 37809   0.0111  25.8530 0002653 230.5373 315.7061  1.00270960 33840
ARABSAT-5C              
1 37810U 11049B   20353.75225128  .00000122  00000-0  00000-0 0  9994
2 37810   0.0591  13.4343 0003659 216.7620 148.4082  1.00270384 33931
EUTELSAT 7 WEST A       
1 37816U 11051A   20354.39284628 -.00000060  00000-0  00000+0 0  9995
2 37816   0.0621  20.5104 0005184 205.1792 356.8927  1.00271133 33859
QUETZSAT 1              
1 37826U 11054A   20354.44948317 -.00000242  00000-0  00000+0 0  9999
2 37826   0.0138  12.3234 0002541 252.2814 268.7129  1.00271711 33989
INTELSAT 18 (IS-18)     
1 37834U 11056A   20353.78417970  .00000052  00000-0  00000-0 0  9991
2 37834   0.0182   4.8298 0001509 263.5604 281.7561  1.00271101 33795
EUTELSAT 16A            
1 37836U 11057A   20354.09632685  .00000103  00000-0  00000+0 0  9997
2 37836   0.0648   6.7592 0004979 266.1820 225.9172  1.00268782 33671
VIASAT-1                
1 37843U 11059A   20354.42668057 -.00000024  00000-0  00000+0 0  9999
2 37843   0.0178   4.8365 0002307 256.3919 225.7503  1.00272234 34165
ASIASAT 7               
1 37933U 11069A   20353.98468288 -.00000334  00000-0  00000+0 0  9998
2 37933   0.0148  17.8990 0001273 194.9061 335.1994  1.00271893 33345
BEIDOU 10               
1 37948U 11073A   20353.23288865 -.00000157  00000-0  00000-0 0  9992
2 37948  51.2767 295.7606 0071295 216.1998 112.4385  1.00294075 33273
LUCH 5A                 
1 37951U 11074B   20353.92518787 -.00000049  00000-0  00000-0 0  9992
2 37951   3.6875 109.7609 0001116 170.5683 307.5995  1.00271673 33075
NIGCOMSAT 1R            
1 38014U 11077A   20354.06785505  .00000144  00000-0  00000+0 0  9990
2 38014   0.0421 205.1458 0001089 133.0398 176.8555  1.00269620 32913
FENGYUN 2F              
1 38049U 12002A   20354.23008709 -.00000359  00000-0  00000+0 0  9999
2 38049   2.4885  82.8990 0002898   9.5166 191.0703  1.00269658 32770
WGS F4 (USA 233)        
1 38070U 12003A   20354.05307596 -.00000215  00000-0  00000+0 0  9991
2 38070   0.0172  55.7318 0000442 112.1643  27.7128  1.00271326 32607
SES-4                   
1 38087U 12007A   20354.03100522 -.00000169  00000-0  00000+0 0  9999
2 38087   0.0093   1.9117 0002747 277.3942 157.9504  1.00272020 32373
BEIDOU 11               
1 38091U 12008A   20354.54960956  .00000055  00000-0  00000+0 0  9999
2 38091   1.8723  70.9342 0003741 235.9676  38.3911  1.00276193 32360
MUOS-1                  
1 38093U 12009A   20353.65646604 -.00000129  00000-0  00000-0 0  9998
2 38093   2.5502  14.3116 0053905 355.7890 213.9733  1.00271634 32326
INTELSAT 22 (IS-22)     
1 38098U 12011A   20353.74979910 -.00000060  00000-0  00000-0 0  9999
2 38098   0.0114  51.9959 0003016 206.5577 171.2991  1.00271932 31690
APSTAR 7                
1 38107U 12013A   20353.74979910 -.00000103  00000-0  00000-0 0  9990
2 38107   0.0171  37.5316 0002362 220.0027 176.7160  1.00271510 31684
YAHSAT 1B               
1 38245U 12016A   20354.06229810  .00000126  00000-0  00000+0 0  9992
2 38245   0.0162  32.1376 0002190 233.3058 252.7217  1.00269716 31801
AEHF-2 (USA 235)        
1 38254U 12019A   20354.45537786 -.00000276  00000-0  00000+0 0  9999
2 38254   2.3038  52.5266 0001123 160.8480 331.5732  1.00271776 31560
JCSAT-13                
1 38331U 12023A   20353.84994615 -.00000357  00000-0  00000-0 0  9991
2 38331   0.0192 284.9491 0001600 320.3745 272.5686  1.00272159 31412
VINASAT-2               
1 38332U 12023B   20353.77458372 -.00000330  00000-0  00000-0 0  9990
2 38332   0.0140 329.1958 0002019 283.2238 246.1049  1.00272627 26543
NIMIQ 6                 
1 38342U 12026A   20354.08900296 -.00000174  00000-0  00000+0 0  9991
2 38342   0.0109   4.0869 0001993 252.0414 132.9575  1.00271783 31486
CHINASAT 2A (ZX 2A)     
1 38352U 12028A   20353.76090906 -.00000293  00000-0  00000-0 0  9999
2 38352   0.0320 138.0093 0002112 110.7140 211.2692  1.00269035 31263
INTELSAT 19 (IS-19)     
1 38356U 12030A   20353.78138814 -.00000058  00000-0  00000-0 0  9998
2 38356   0.0187 349.0521 0002778 281.1982 264.8957  1.00271341 30342
ECHOSTAR 17             
1 38551U 12035A   20354.43128657 -.00000076  00000-0  00000+0 0  9996
2 38551   0.0050 326.9940 0002219 294.6187 235.0272  1.00274308 31014
METEOSAT-10 (MSG-3)     
1 38552U 12035B   20353.75015760  .00000060  00000-0  00000-0 0  9994
2 38552   1.2561 353.6931 0001187 203.3210 170.0889  1.00275633 30742
SES-5                   
1 38652U 12036A   20354.32349359  .00000033  00000-0  00000+0 0  9993
2 38652   0.0435  77.9926 0001836 182.7734 309.0429  1.00271614 30954
TIANLIAN 1-03           
1 38730U 12040A   20354.18304347  .00000125  00000-0  00000+0 0  9999
2 38730   0.6661  99.7139 0004709 248.3567 186.4806  1.00273456 30874
INTELSAT 20 (IS-20)     
1 38740U 12043A   20353.97726780 -.00000025  00000-0  00000+0 0  9998
2 38740   0.0217  97.1745 0002526  85.5628 325.6042  1.00271239 30714
HYLAS 2                 
1 38741U 12043B   20354.32549471  .00000154  00000-0  00000+0 0  9991
2 38741   0.0137 304.2296 0001552 319.6062 332.7356  1.00271566 30732
INTELSAT 21 (IS-21)     
1 38749U 12045A   20353.73672326 -.00000286  00000-0  00000-0 0  9999
2 38749   0.0120  56.1384 0001569 208.8180  30.0844  1.00270347 30423
ASTRA 2F                
1 38778U 12051A   20353.75390876  .00000149  00000-0  00000-0 0  9994
2 38778   0.0794 242.9911 0003966 356.1549 148.3000  1.00273365 21051
GSAT-10                 
1 38779U 12051B   20354.48269947 -.00000165  00000-0  00000+0 0  9998
2 38779   0.0898  98.6548 0003154 162.7516  83.9065  1.00272638 30184
INTELSAT 23 (IS-23)     
1 38867U 12057A   20353.73759562 -.00000285  00000-0  00000-0 0  9990
2 38867   0.0133  68.0888 0001875 186.5265  45.7322  1.00272884 29863
BEIDOU 16               
1 38953U 12059A   20354.60535567 -.00000176  00000-0  00000+0 0  9990
2 38953   1.5400  84.6223 0008459 255.4863  50.5309  1.00270600 29935
LUCH 5B                 
1 38977U 12061A   20354.03213929 -.00000138  00000-0  00000+0 0  9999
2 38977   6.1320  66.4380 0001536 208.8472 167.9877  1.00269591 30068
YAMAL 300K              
1 38978U 12061B   20354.03984191  .00000070  00000-0  00000+0 0  9990
2 38978   0.0126 293.1885 0001398 320.3762  31.8151  1.00271553 29752
STAR ONE C3             
1 38991U 12062A   20354.45115752 -.00000250  00000-0  00000+0 0  9992
2 38991   0.0114  49.7890 0002045 225.7463 260.3900  1.00286123 29740
EUTELSAT 21B            
1 38992U 12062B   20354.32680855  .00000129  00000-0  00000+0 0  9994
2 38992   0.0646   7.3813 0002891 262.5606 317.7122  1.00268985 29753
ECHOSTAR 16             
1 39008U 12065A   20354.45936816 -.00000282  00000-0  00000+0 0  9992
2 39008   0.0243 347.8055 0002145 275.3551 289.2218  1.00271261 29691
CHINASAT 12 (ZX 12)     
1 39017U 12067A   20354.35465951 -.00000207  00000-0  00000+0 0  9997
2 39017   0.0218 354.7752 0003027 263.5325  45.2540  1.00272007 29598
